#dP2022 11  2  0  0  0.00000000      96 __u+U ITR00 EXT  IAC
## 2234 259200.00000000   900.00000000 59885 0.0000000000000
+  117   C06C07C08C09C10C11C12C13C14C16C19C20C21C22C23C24C25
+        C26C27C28C29C30C32C33C34C35C36C37C38C39C40C41C42C43
+        C44C45C46E01E03E04E05E07E08E09E10E11E12E13E14E15E18
+        E19E21E24E25E26E27E30E31E33E34E36G01G02G03G04G05G06
+        G07G08G09G10G11G12G13G14G15G16G17G18G19G20G21G22G23
+        G24G25G26G27G28G29G30G31G32J02J03J04R01R02R03R04R05
+        R07R08R09R11R12R13R14R15R17R18R19R20R21R22R24  0  0
++        10 10 10  9  9  9 10 11  7 10  9  8  8 10 10  9  9
++         9 10  8  9 10  8  9  7  8 10  9 11  8 10  8  7  8
++         8  9 10  8  7  7  8  7  7  8 10  8  8  7  8  9  8
++         7  7  7  9  8  8  8  8  8  8  8  8  8  9  7 10  8
++         7  7  7  7  9  9  8  8  8  6  8  9  7  7  9  8  8
++         8  9 14  7  6  7  7  9  7 10  9 11  8  8  9  8  9
++         8  9  9  9  9  8  8  9  8  7  8  8  9  9  9  0  0
%c M  cc GPS ccc cccc cccc cccc cccc ccccc ccccc ccccc ccccc
%c cc cc ccc ccc cccc cccc cccc cccc ccccc ccccc ccccc ccccc
%f  0.0000000  0.000000000  0.00000000000  0.000000000000000
%f  0.0000000  0.000000000  0.00000000000  0.000000000000000
%i    0    0    0    0      0      0      0      0         0
%i    0    0    0    0      0      0      0      0         0
/* IAC                                ULTRA-RAPID PREDICTION
/* S/V CLOCKS ARE ALIGNED TO GNSS TIME                      
/* G:C1WC2W R:C1PC2P E:C1XC5X C:C2IC6I J:C1CC2S             
/* PCV:IGS14_2218 OL/AL:FES2004  NONE     YN ORB:CoN CLK:CoN
*  2022 11 02 15 30  0.00000000
PC06  -4516.111125  39039.679766 -14960.184561     10.519512
PC07  -8949.282433  25717.244491  32240.033864    270.093543
PC08 -20482.101233  32011.186154 -18476.436570    505.598767
PC09   1637.945575  41554.893678  -4642.014758   -817.761328
PC10    233.068271  27706.779121  32143.679999     74.541414
PC11  11436.694517  24491.648973  -6938.040993   -315.545306
PC12    234.099705  25898.176085  10462.083735    284.701793
PC13 -11754.345589  31948.259160 -24947.669246    123.008362
PC14  17824.223737  14926.916658 -15460.401669    619.467624
PC16  -7300.992471  36571.476092 -19225.814037    122.070122
PC19 -24651.977257 -10768.896748   7414.493430   -919.774952
PC20  -9879.899152 -16451.199773  20256.478552    848.613244
PC21 -11946.570461  12619.892053 -21825.371017   -735.718634
PC22 -25865.101996   1396.505867 -10369.906507   -816.025367
PC23  22394.123514  -9787.174017  13467.300259   -856.754066
PC24  -2528.896260  21407.252231  17728.761159   -861.868337
PC25  15225.132201   6965.637537  22314.341929     18.748585
PC26 -16040.668393  22483.477355   4121.064229    -30.250584
PC27   6051.706967 -21289.381057 -17017.972077     45.307846
PC28  15390.053603  -4018.771257 -22922.775292     31.390929
PC29 -16681.858742 -16402.923103  15206.937659     35.130839
PC30  -7520.487836 -26807.355918  -2018.727893      0.805306
PC32  11972.318693 -12681.240343  21792.096240   -733.940849
PC33  24674.998645  10679.243874  -7493.831906   -920.685966
PC34   8241.292794  26637.522061    869.381208     30.436954
PC35 -15837.317484   2845.259978  22795.781751     70.085081
PC36 -14638.722004  -7855.856744 -22399.616665   -871.883387
PC37  17330.992914 -21661.647709  -2870.139964   -708.323463
PC38 -24759.320551  32524.819822 -10717.022521     35.367258
PC39  -8533.447411  33859.715535 -23484.811198     -0.773151
PC40 -14041.715968  18945.276622  34936.685060     -7.278488
PC41  26081.284760  -1151.075232   9896.629242   -234.976425
PC42   8633.633032  16539.105637 -20721.390233   -588.767414
PC43  16526.561974  17093.458357 -14601.010748     22.868725
PC44  -5514.117073  21361.281308  17065.270451    101.180641
PC45 -22385.869666  10183.118234 -13213.472889    -17.445291
PC46    864.380527 -20545.323883 -18844.427530    -10.360346
PE01 -28799.346999   5889.273568  -3518.165682   -558.336143
PE03  21949.130832   1575.328711  19790.926997   -615.987856
PE04  -8172.463244  15446.569826 -23892.852180  -1149.960123
PE05  23122.149165  18049.051561   3958.784766   -128.539806
PE07 -10847.760401 -23766.501914  13908.164966   -718.241272
PE08   8019.408407 -15371.691481  23982.744794   -625.710236
PE09  10791.487589  23673.214538 -14131.661861   -715.045412
PE10  -6597.724494  28863.481484   -135.804669   -488.009225
PE11    434.983781  27685.383216 -10467.652471   1509.937254
PE12 -12161.990753  25335.259915   9284.801482   -255.543895
PE13    135.063771 -27971.037733   9682.301910    430.658534
PE14 -18705.882480 -11079.139638   9305.860274     45.304296
PE15  12198.254204 -25219.260368  -9543.589255    710.048700
PE18  25658.851881   9470.122770 -17482.607010   -789.582194
PE19 -22888.568209  -4193.907452 -18301.160779  -4102.056844
PE21 -21879.115052  -6878.857679 -18712.614629   -492.318018
PE24    779.776319  17048.053435  24179.545612   -925.337044
PE25  21633.293413   7098.581557  18919.901411   -591.713918
PE26 -12424.961105 -13459.918023  23253.514603  -1798.853790
PE27  -1990.769252 -16734.861876 -24325.737888   -430.056313
PE30  19591.676542 -16376.797724 -14959.757440   -966.222896
PE31 -18884.771944  16656.354886  15578.039710   -507.198272
PE33 -16990.820100   7599.695235  23021.908801   -455.274973
PE34  16978.312508  -7806.967508 -22954.086341    -12.586068
PE36  11877.457129  14305.772842 -23027.525795   -454.966649
PG01 -13709.785489  20213.505207   9691.888384    257.851842
PG02  11444.853709 -22262.622354  -8533.904872   -639.677463
PG03 -20750.797627  12154.318060 -11283.372735   -370.105261
PG04  -9735.356052  11903.673924 -21647.225078    -93.328140
PG05  25960.711833  -5830.453865  -1136.837013   -102.765448
PG06   8812.588683  15037.888264 -19950.842703    508.083867
PG07  -4886.276270  25470.088649   4751.587612    292.111713
PG08 -17313.171969   2060.310881  20097.021632    -91.886686
PG09   1471.521366  19865.656713 -17627.818814   -274.516017
PG10 -10202.523719 -12556.694490  21278.358080    -10.183042
PG11  14965.404823   3067.860111 -21719.768367    -33.827401
PG12  21764.332251 -10652.188631 -11022.641605   -299.527702
PG13  18985.169065   7181.453246  17054.494265    417.394586
PG14   7510.270553  14088.867540  21248.098015    -88.116457
PG15  17147.506343  -4386.125762  19437.593351    -15.759271
PG16 -26150.964265  -1112.152904  -6067.181267   -526.799975
PG17  11599.521053  22803.708538   7433.709839    674.403068
PG18   4451.656687 -25381.674051   6118.304657     -7.397081
PG19  17654.680379  19624.115633  -4250.165449    232.042670
PG20  22646.017658   1733.983626 -13565.653019    473.363296
PG21 -15655.592942  12483.480539  17664.616488    156.871718
PG22 -18677.633194 -17958.007839  -5828.330324    357.110915
PG23   2142.089709 -15561.531742  21388.349891     -1.145370
PG24  14266.673080 -17512.802654  13296.759902     75.480605
PG25  11610.486669 -15706.432741 -18164.389575    388.649671
PG26 -21029.525284  -5980.518589 -15394.057159    234.542424
PG27 -20937.090061  -9607.912284  13346.609655    186.530748
PG28      0.000000      0.000000      0.000000      7.199779
PG29   1363.597945 -18846.035609 -18672.956284   -564.296330
PG30   3719.279021  21924.637831  14422.888407   -537.000208
PG31 -10369.344172 -13708.987632 -20277.119258   -198.878120
PG32 -15237.133170 -21445.273115   4518.197379   -283.134226
PJ02 -29978.023400  26862.607245  17692.329755     -8.782230
PJ03 -26847.890555  25989.147954  24610.248891     -3.912262
PJ04 -30674.579564  19969.510356 -15739.785140    112.446552
PR01  18638.600346  -1453.200765  17350.757999     17.224814
PR02   1066.258434 -11295.524712  22887.103927    -23.184974
PR03 -15907.270022 -14168.508491  14117.682638     66.571900
PR04 -23674.082960  -9240.715305  -2287.290480    163.452982
PR05 -18591.487034    682.839620 -17463.626824    102.254632
PR07  16445.417561  14067.834159 -13425.627045     43.608824
PR08  23721.558917   8989.430355   2539.680806    -67.896240
PR09 -11918.224131  17894.260308  13685.014291     85.402766
PR11  16608.089793  -1207.707232  19338.840442     22.529580
PR12  21150.804233 -13793.223719   3570.135363     22.520096
PR13  13368.918713 -17823.727368 -12429.710504    -28.443697
PR14  -3505.186321 -11132.823400 -22669.341267     24.167173
PR15 -17269.216281   1757.149608 -18669.752748     92.885768
PR17  -6414.282951 -23174.408763   8456.414831    574.571380
PR18 -10459.958758 -10360.786045  20861.792656     50.062898
PR19  -9648.003579   6365.014819  22744.587104   -209.548613
PR20  -2743.328343  23317.749398   9943.620133    -81.383511
PR21   6841.221957  22485.045641  -9952.905343   -346.519325
PR22  10509.599191   9931.302829 -20982.646728     15.269190
PR24   1923.296601 -23698.858608  -9186.691456    124.053954
EOF
